GLOBALSTAR M068         
1 32266U 07048D   25139.12296049 -.00000098  00000+0  34849-4 0  9990
2 32266  51.9909  30.8533 0001737  69.3071  81.4243 12.62822997814171
GLOBALSTAR M079         
1 37188U 10054A   25139.18412272 -.00000081  00000+0  12752-3 0  9993
2 37188  52.0033 228.0751 0000536 167.8751 202.2076 12.62264562673478
GLOBALSTAR M074         
1 37189U 10054B   25139.52828544 -.00000086  00000+0  97436-4 0  9993
2 37189  52.0010 226.3558 0000284 125.1521 248.3982 12.62269718673512
GLOBALSTAR M076         
1 37190U 10054C   25138.95577251 -.00000089  00000+0  80819-4 0  9997
2 37190  52.0022 228.2655 0000292 169.8832   1.6335 12.62262734673080
GLOBALSTAR M077         
1 37191U 10054D   25138.62511962 -.00000096  00000+0  42165-4 0  9999
2 37191  52.0050 186.1218 0000190 147.4196  20.2693 12.62268247673417
GLOBALSTAR M075         
1 37192U 10054E   25139.12727043 -.00000068  00000+0  19847-3 0  9994
2 37192  51.9951 270.0174 0000665 114.1886  56.5505 12.62264923672706
GLOBALSTAR M073         
1 37193U 10054F   25139.40964229 -.00000094  00000+0  53093-4 0  9996
2 37193  52.0037 182.9564 0000158 192.2275 181.4506 12.62271656674256
GLOBALSTAR M083         
1 37739U 11033A   25138.94850814 -.00000111  00000+0 -42975-4 0  9990
2 37739  51.9839 133.1292 0000186 103.7145 273.5641 12.62263634643166
GLOBALSTAR M088         
1 37740U 11033B   25138.93543912 -.00000086  00000+0  10032-3 0  9997
2 37740  51.9751  38.6825 0000724  76.2016   2.9497 12.62266104638703
GLOBALSTAR M091         
1 37741U 11033C   25138.93446318 -.00000092  00000+0  67967-4 0  9997
2 37741  52.0019   2.1914 0000936 100.2935 273.6014 12.62267904639499
GLOBALSTAR M085         
1 37742U 11033D   25139.19337431 -.00000084  00000+0  10836-3 0  9995
2 37742  51.9876 312.4667 0000940 115.8306  55.5074 12.62268489640528
GLOBALSTAR M081         
1 37743U 11033E   25138.80913514 -.00000074  00000+0  16722-3 0  9994
2 37743  51.9967 316.4071 0000752 117.8363 345.7798 12.62263977640130
GLOBALSTAR M089         
1 37744U 11033F   25139.55605734 -.00000089  00000+0  81836-4 0  9995
2 37744  51.9932 268.3639 0000458 107.6815 333.0307 12.62269944641328
GLOBALSTAR M084         
1 38040U 11080A   25138.71847069 -.00000104  00000+0  13965-5 0  9990
2 38040  51.9980 138.1866 0000368 355.8286 175.9152 12.62266158618943
GLOBALSTAR M080         
1 38041U 11080B   25138.76896441 -.00000097  00000+0  36145-4 0  9999
2 38041  52.0030 139.6141 0000581  90.1897  81.1503 12.62263041619079
GLOBALSTAR M082         
1 38042U 11080C   25139.57607455 -.00000098  00000+0  29823-4 0  9991
2 38042  52.0067  92.6135 0000687  86.9395  84.1006 12.62266165620055
GLOBALSTAR M092         
1 38043U 11080D   25138.83717917 -.00000106  00000+0 -14874-4 0  9996
2 38043  52.0063 185.2404 0000203 118.9588  52.9786 12.62264433618246
GLOBALSTAR M090         
1 38044U 11080E   25139.28109355 -.00000096  00000+0  40786-4 0  9996
2 38044  51.9879  87.3557 0000462  75.0997  75.2258 12.62270193620004
GLOBALSTAR M086         
1 38045U 11080F   25139.31063368 -.00000080  00000+0  13006-3 0  9991
2 38045  51.9892  87.8143 0000551 271.7018 253.3714 12.62271037620019
GLOBALSTAR M097         
1 39072U 13005A   25138.90497092 -.00000086  00000+0  96910-4 0  9992
2 39072  52.0068   3.5692 0000672  99.7948 260.2995 12.62272075567117
GLOBALSTAR M093         
1 39073U 13005B   25138.87847071 -.00000096  00000+0  42267-4 0  9992
2 39073  51.9832 356.9990 0000750 101.0109 259.0842 12.62264598567066
GLOBALSTAR M094         
1 39074U 13005C   25139.51195603 -.00000088  00000+0  89476-4 0  9996
2 39074  51.9962 269.4227 0000780 144.8845 215.2073 12.62270874568770
GLOBALSTAR M096         
1 39075U 13005D   25139.20849345 -.00000085  00000+0  10422-3 0  9993
2 39075  52.0085 318.8396 0000941 120.1963 239.8997 12.62271367567989
GLOBALSTAR M078         
1 39076U 13005E   25139.10269469  .00000004  00000+0  60420-3 0  9999
2 39076  51.9893  43.7082 0001444  97.4209 262.6822 12.62263498566457
GLOBALSTAR M095         
1 39077U 13005F   25139.44583477 -.00000088  00000+0  85267-4 0  9995
2 39077  51.9820  39.8741 0000938 104.2489 255.8482 12.62269689566500
GLOBALSTAR M087         
1 52888U 22064A   25138.84302204 -.00000100  00000+0  23748-4 0  9996
2 52888  51.9970 183.1368 0000332 139.4433 220.6458 12.62263228141332
